NORAD_CAT_ID,OBJECT_NAME,OBJECT_TYPE,EPOCH,MEAN_MOTION,ECCENTRICITY,INCLINATION,RA_OF_ASC_NODE,ARG_OF_PERICENTER,MEAN_ANOMALY,BSTAR,MEAN_MOTION_DOT,MEAN_MOTION_DDOT,TLE_LINE0,TLE_LINE1,TLE_LINE2,SEMIMAJOR_AXIS,PERIOD,APOGEE,PERIGEE,DECAYED
54771.0,STARLINK-5451,PAYLOAD,2023-03-16 21:53:07,15.08835233,0.0001344,53.2169,246.6228,94.7277,265.3869,-2.155e-05,-6.31e-06,0.0,0 STARLINK-5451,1 54771U 22175P   23075.91189183 -.00000631  00000-0 -21550-4 0  9997,2 54771  53.2169 246.6228 0001344  94.7277 265.3869 15.08835233 13461,6917.895,95.438,540.69,538.83,0.0
54771.0,STARLINK-5451,PAYLOAD,2023-03-17 04:14:39,15.08840353,0.0001316,53.2157,245.4342,88.4695,271.6448,-4.2921e-05,-9.71e-06,0.0,0 STARLINK-5451,1 54771U 22175P   23076.17685005 -.00000971  00000-0 -42921-4 0  9992,2 54771  53.2157 245.4342 0001316  88.4695 271.6448 15.08840353 15661,6917.879,95.438,540.655,538.834,0.0
54771.0,STARLINK-5451,PAYLOAD,2023-03-17 13:46:58,15.08837787,0.0001444,53.2143,243.6491,88.5457,271.5701,7.1402e-05,8.49e-06,0.0,0 STARLINK-5451,1 54771U 22175P   23076.57429153  .00000849  00000-0  71402-4 0  9994,2 54771  53.2143 243.6491 0001444  88.5457 271.5701 15.08837787 15725,6917.887,95.438,540.751,538.753,0.0
54771.0,STARLINK-5451,PAYLOAD,2023-03-18 04:05:26,15.08844477,0.0001176,53.2173,240.9746,84.6307,275.4819,-5.0108e-06,-3.68e-06,0.0,0 STARLINK-5451,1 54771U 22175P   23077.17044607 -.00000368  00000-0 -50108-5 0  9997,2 54771  53.2173 240.9746 0001176  84.6307 275.4819 15.08844477 13651,6917.867,95.437,540.545,538.918,0.0
54771.0,STARLINK-5451,PAYLOAD,2023-03-18 19:59:17,15.08852138,0.0001449,53.2174,238.0012,99.5193,260.5963,0.00039048,5.934e-05,0.0,0 STARLINK-5451,1 54771U 22175P   23077.83284439  .00005934  00000-0  39048-3 0  9999,2 54771  53.2174 238.0012 0001449  99.5193 260.5963 15.08852138 15916,6917.843,95.437,540.711,538.706,0.0
54771.0,STARLINK-5451,PAYLOAD,2023-03-19 03:56:13,15.08840633,4.31e-05,53.2156,236.5131,130.0889,230.0141,2.7736e-05,1.54e-06,0.0,0 STARLINK-5451,1 54771U 22175P   23078.16404448  .00000154  00000-0  27736-4 0  9991,2 54771  53.2156 236.5131 0000431 130.0889 230.0141 15.08840633 15966,6917.878,95.438,540.042,539.445,0.0
54771.0,STARLINK-5451,PAYLOAD,2023-03-19 15:03:55,15.08842422,0.0001348,53.2166,234.4335,87.774,272.3406,6.9069e-05,8.12e-06,0.0,0 STARLINK-5451,1 54771U 22175P   23078.62772786  .00000812  00000-0  69069-4 0  9991,2 54771  53.2166 234.4335 0001348  87.7740 272.3406 15.08842422 13871,6917.873,95.437,540.671,538.805,0.0
54771.0,STARLINK-5451,PAYLOAD,2023-03-19 19:50:04,15.08851839,0.0001193,53.2164,233.5396,95.2724,264.8404,0.00020724,3.013e-05,0.0,0 STARLINK-5451,1 54771U 22175P   23078.82644254  .00003013  00000-0  20724-3 0  9991,2 54771  53.2164 233.5396 0001193  95.2724 264.8404 15.08851839 16060,6917.844,95.437,540.535,538.884,0.0
54771.0,STARLINK-5451,PAYLOAD,2023-03-20 13:19:19,15.08839638,0.0001243,53.2171,230.2689,91.914,268.1995,0.00012668,1.729e-05,0.0,0 STARLINK-5451,1 54771U 22175P   23079.55508910  .00001729  00000-0  12668-3 0  9990,2 54771  53.2171 230.2689 0001243  91.9140 268.1995 15.08839638 16175,6917.881,95.438,540.606,538.887,0.0
54771.0,STARLINK-5451,PAYLOAD,2023-03-20 16:30:06,15.08843653,0.0001417,53.2171,229.6744,90.8269,269.2885,0.0004491,6.867e-05,0.0,0 STARLINK-5451,1 54771U 22175P   23079.68757026  .00006867  00000-0  44910-3 0  9991,2 54771  53.2171 229.6744 0001417  90.8269 269.2885 15.08843653 16196,6917.869,95.437,540.714,538.754,0.0
54771.0,STARLINK-5451,PAYLOAD,2023-03-20 19:40:52,15.0884851,0.0001417,53.2173,229.08,87.149,272.9665,0.00076829,0.00011963,0.0,0 STARLINK-5451,1 54771U 22175P   23079.82004976  .00011963  00000-0  76829-3 0  9993,2 54771  53.2173 229.0800 0001417  87.1490 272.9665 15.08848510 14057,6917.854,95.437,540.7,538.739,0.0
54771.0,STARLINK-5451,PAYLOAD,2023-03-21 13:10:06,15.08850068,0.0001424,53.2174,225.8099,79.7369,280.3784,0.00046394,7.105e-05,0.0,0 STARLINK-5451,1 54771U 22175P   23080.54868868  .00007105  00000-0  46394-3 0  9999,2 54771  53.2174 225.8099 0001424  79.7369 280.3784 15.08850068 16320,6917.85,95.437,540.7,538.73,0.0
54771.0,STARLINK-5451,PAYLOAD,2023-03-21 21:07:01,15.08862351,0.0001423,53.2175,224.3216,61.6846,298.4289,0.000941,0.00014729,0.0,0 STARLINK-5451,1 54771U 22175P   23080.87988279  .00014729  00000-0  94100-3 0  9992,2 54771  53.2175 224.3216 0001423  61.6846 298.4289 15.08862351 16378,6917.812,95.436,540.661,538.693,0.0
54771.0,STARLINK-5451,PAYLOAD,2023-03-22 13:00:53,15.08840472,0.0001089,53.2186,221.3498,66.6535,293.4572,0.0002931,4.38e-05,0.0,0 STARLINK-5451,1 54771U 22175P   23081.54228637  .00004380  00000-0  29310-3 0  9995,2 54771  53.2186 221.3498 0001089  66.6535 293.4572 15.08840472 14319,6917.879,95.438,540.497,538.991,0.0
54771.0,STARLINK-5451,PAYLOAD,2023-03-22 19:22:25,15.08868726,0.0001017,53.2181,220.1594,80.506,279.6047,0.0024478,0.00038915,0.0,0 STARLINK-5451,1 54771U 22175P   23081.80724327  .00038915  00000-0  24478-2 0  9991,2 54771  53.2181 220.1594 0001017  80.5060 279.6047 15.08868726 14356,6917.793,95.436,540.361,538.954,0.0
54771.0,STARLINK-5451,PAYLOAD,2023-03-23 01:43:58,15.08846073,0.0001063,53.219,218.9706,98.7386,261.3727,0.0004369,6.673e-05,0.0,0 STARLINK-5451,1 54771U 22175P   23082.07220520  .00006673  00000-0  43690-3 0  9991,2 54771  53.2190 218.9706 0001063  98.7386 261.3727 15.08846073 14397,6917.862,95.437,540.462,538.991,0.0
54771.0,STARLINK-5451,PAYLOAD,2023-03-23 14:27:03,15.08848285,0.000124,53.2191,216.5937,101.1369,258.9762,0.0014022,0.00022103,0.0,0 STARLINK-5451,1 54771U 22175P   23082.60212811  .00022103  00000-0  14022-2 0  9996,2 54771  53.2191 216.5937 0001240 101.1369 258.9762 15.08848285 16632,6917.855,95.437,540.578,538.862,0.0
54771.0,STARLINK-5451,PAYLOAD,2023-03-23 16:02:26,15.08854849,0.0001263,53.2195,216.2976,109.661,250.4518,0.001758,0.00027813,0.0,0 STARLINK-5451,1 54771U 22175P   23082.66836695  .00027813  00000-0  17580-2 0  9999,2 54771  53.2195 216.2976 0001263 109.6610 250.4518 15.08854849 16643,6917.835,95.437,540.574,538.826,0.0
54771.0,STARLINK-5451,PAYLOAD,2023-03-24 12:42:25,15.08905474,0.0001114,53.2182,212.4332,111.0934,249.0178,0.0020308,0.00032238,0.0,0 STARLINK-5451,1 54771U 22175P   23083.52946534  .00032238  00000-0  20308-2 0  9998,2 54771  53.2182 212.4332 0001114 111.0934 249.0178 15.08905474 14616,6917.68,95.433,540.316,538.775,0.0
54771.0,STARLINK-5451,PAYLOAD,2023-03-24 14:17:48,15.08916113,0.0001312,53.2183,212.1361,111.5327,248.5805,0.0023909,0.00038048,0.0,0 STARLINK-5451,1 54771U 22175P   23083.59570174  .00038048  00000-0  23909-2 0  9993,2 54771  53.2183 212.1361 0001312 111.5327 248.5805 15.08916113 16780,6917.648,95.433,540.42,538.605,0.0
54771.0,STARLINK-5451,PAYLOAD,2023-03-24 15:53:11,15.08929167,0.000144,53.2188,211.8392,114.011,246.1033,0.0029089,0.00046426,0.0,0 STARLINK-5451,1 54771U 22175P   23083.66193775  .00046426  00000-0  29089-2 0  9993,2 54771  53.2188 211.8392 0001440 114.0110 246.1033 15.08929167 14637,6917.608,95.432,540.469,538.477,0.0
54771.0,STARLINK-5451,PAYLOAD,2023-03-24 20:39:19,15.08945117,0.0001605,53.2183,210.943,94.8915,265.226,0.0025349,0.00040403,0.0,0 STARLINK-5451,1 54771U 22175P   23083.86064500  .00040403  00000-0  25349-2 0  9992,2 54771  53.2183 210.9430 0001605  94.8915 265.2260 15.08945117 16826,6917.559,95.431,540.534,538.314,0.0
54771.0,STARLINK-5451,PAYLOAD,2023-03-25 01:25:30,15.08815889,0.0001592,53.2184,210.052,94.3301,265.7873,-0.0042012,-0.0006649,0.0,0 STARLINK-5451,1 54771U 22175P   23084.05937706 -.00066490  00000-0 -42012-2 0  9993,2 54771  53.2184 210.0520 0001592  94.3301 265.7873 15.08815889 14697,6917.954,95.439,540.92,538.718,0.0
54771.0,STARLINK-5451,PAYLOAD,2023-03-25 12:33:15,15.08724257,0.0001054,53.2169,207.9729,106.0397,254.0711,-0.0019873,-0.00031676,0.0,0 STARLINK-5451,1 54771U 22175P   23084.52309387 -.00031676  00000-0 -19873-2 0  9990,2 54771  53.2169 207.9729 0001054 106.0397 254.0711 15.08724257 14763,6918.234,95.445,540.828,539.37,0.0
54771.0,STARLINK-5451,PAYLOAD,2023-03-25 20:30:13,15.0872621,0.0001372,53.2163,206.4829,89.5896,270.5254,0.0019834,0.0003132,0.0,0 STARLINK-5451,1 54771U 22175P   23084.85432547  .00031320  00000-0  19834-2 0  9992,2 54771  53.2163 206.4829 0001372  89.5896 270.5254 15.08726210 16975,6918.228,95.445,541.042,539.144,0.0
54771.0,STARLINK-5451,PAYLOAD,2023-03-26 01:16:22,15.08811351,7.82e-05,53.2172,205.5927,258.6181,101.4723,0.0048125,0.00077081,0.0,0 STARLINK-5451,1 54771U 22175P   23085.05303599  .00077081  00000-0  48125-2 0  9998,2 54771  53.2172 205.5927 0000782 258.6181 101.4723 15.08811351 14842,6917.968,95.439,540.374,539.292,0.0
54771.0,STARLINK-5451,PAYLOAD,2023-03-26 12:24:04,15.08872135,0.0001155,53.217,203.5091,71.5795,288.5323,0.0027699,0.0004411,0.0,0 STARLINK-5451,1 54771U 22175P   23085.51671768  .00044110  00000-0  27699-2 0  9995,2 54771  53.2170 203.5091 0001155  71.5795 288.5323 15.08872135 14916,6917.782,95.436,540.446,538.848,0.0
54771.0,STARLINK-5451,PAYLOAD,2023-03-26 15:34:50,15.08896411,0.0001344,53.217,202.9139,73.2794,286.8346,0.0028763,0.00045857,0.0,0 STARLINK-5451,1 54771U 22175P   23085.64919289  .00045857  00000-0  28763-2 0  9994,2 54771  53.2170 202.9139 0001344  73.2794 286.8346 15.08896411 17091,6917.708,95.434,540.503,538.643,0.0
54771.0,STARLINK-5451,PAYLOAD,2023-03-27 12:14:50,15.08883727,0.0001213,53.2171,199.0485,119.1139,240.9974,0.0023902,0.00038003,0.0,0 STARLINK-5451,1 54771U 22175P   23086.51030278  .00038003  00000-0  23902-2 0  9998,2 54771  53.2171 199.0485 0001213 119.1139 240.9974 15.08883727 15069,6917.747,95.435,540.451,538.773,0.0
54771.0,STARLINK-5451,PAYLOAD,2023-03-27 13:50:13,15.08882689,0.0001285,53.2175,198.7502,137.1978,222.9114,0.002169,0.00034441,0.0,0 STARLINK-5451,1 54771U 22175P   23086.57654008  .00034441  00000-0  21690-2 0  9991,2 54771  53.2175 198.7502 0001285 137.1978 222.9114 15.08882689 17232,6917.75,95.435,540.504,538.726,0.0
